{
  "type": "FeatureCollection",
  "features": [
    {
      "type": "Feature",
      "properties": {
        "norad_id": 43262,
        "name": "GAOFEN-1 04",
        "group": "resource",
        "lat": -45.36313311665048,
        "lon": 61.591695661968956,
        "alt_km": 647.4736651730636,
        "timestamp": "2025-12-21T11:31:42.499524+00:00",
        "meta_object_name": "GAOFEN-1 04",
        "meta_object_id": "2018-031D",
        "meta_epoch": "2025-12-21T05:13:48.269856",
        "meta_mean_motion": 14.76422616,
        "meta_eccentricity": 6.83e-05,
        "meta_inclination": 98.0802,
        "meta_ra_of_asc_node": 53.057,
        "meta_arg_of_pericenter": 55.2268,
        "meta_mean_anomaly": 304.9006,
        "meta_ephemeris_type": 0,
        "meta_classification_type": "U",
        "meta_norad_cat_id": 43262,
        "meta_element_set_no": 999,
        "meta_rev_at_epoch": 41642,
        "meta_bstar": 0.00010728,
        "meta_mean_motion_dot": 6.94e-06,
        "meta_mean_motion_ddot": 0,
        "tle_line1": "1 43262U 18031D   25355.21791979  .00000694  00000+0  10728-3 0  9994",
        "tle_line2": "2 43262  98.0802  53.0570 0000683  55.2268 304.9006 14.76422616416429"
      },
      "geometry": {
        "type": "Point",
        "coordinates": [
          61.591695661968956,
          -45.36313311665048
        ]
      }
    },
    {
      "type": "Feature",
      "properties": {
        "norad_id": 43437,
        "name": "SENTINEL-3B",
        "group": "resource",
        "lat": -1.0309688919905986,
        "lon": 60.69644872672194,
        "alt_km": 805.7876148982468,
        "timestamp": "2025-12-21T11:31:42.499535+00:00",
        "meta_object_name": "SENTINEL-3B",
        "meta_object_id": "2018-039A",
        "meta_epoch": "2025-12-21T03:07:03.945792",
        "meta_mean_motion": 14.26736979,
        "meta_eccentricity": 0.0001631,
        "meta_inclination": 98.6257,
        "meta_ra_of_asc_node": 60.1946,
        "meta_arg_of_pericenter": 93.5044,
        "meta_mean_anomaly": 266.6323,
        "meta_ephemeris_type": 0,
        "meta_classification_type": "U",
        "meta_norad_cat_id": 43437,
        "meta_element_set_no": 999,
        "meta_rev_at_epoch": 39873,
        "meta_bstar": 6.0795e-05,
        "meta_mean_motion_dot": 1.03e-06,
        "meta_mean_motion_ddot": 0,
        "tle_line1": "1 43437U 18039A   25355.12990678  .00000103  00000+0  60795-4 0  9998",
        "tle_line2": "2 43437  98.6257  60.1946 0001631  93.5044 266.6323 14.26736979398734"
      },
      "geometry": {
        "type": "Point",
        "coordinates": [
          60.69644872672194,
          -1.0309688919905986
        ]
      }
    },
    {
      "type": "Feature",
      "properties": {
        "norad_id": 43461,
        "name": "GAOFEN-5 01",
        "group": "resource",
        "lat": -33.323227159562755,
        "lon": -35.80150281328468,
        "alt_km": 697.7099715706772,
        "timestamp": "2025-12-21T11:31:42.499545+00:00",
        "meta_object_name": "GAOFEN-5 01",
        "meta_object_id": "2018-043A",
        "meta_epoch": "2025-12-21T03:27:39.430368",
        "meta_mean_motion": 14.60418022,
        "meta_eccentricity": 5.16e-05,
        "meta_inclination": 98.4338,
        "meta_ra_of_asc_node": 318.2586,
        "meta_arg_of_pericenter": 283.9485,
        "meta_mean_anomaly": 76.1657,
        "meta_ephemeris_type": 0,
        "meta_classification_type": "U",
        "meta_norad_cat_id": 43461,
        "meta_element_set_no": 999,
        "meta_rev_at_epoch": 40570,
        "meta_bstar": 7.4418e-05,
        "meta_mean_motion_dot": 3.12e-06,
        "meta_mean_motion_ddot": 0,
        "tle_line1": "1 43461U 18043A   25355.14420637  .00000312  00000+0  74418-4 0  9994",
        "tle_line2": "2 43461  98.4338 318.2586 0000516 283.9485  76.1657 14.60418022405705"
      },
      "geometry": {
        "type": "Point",
        "coordinates": [
          -35.80150281328468,
          -33.323227159562755
        ]
      }
    },
    {
      "type": "Feature",
      "properties": {
        "norad_id": 43484,
        "name": "GAOFEN-6",
        "group": "resource",
        "lat": 69.2325868556824,
        "lon": -99.3476786684137,
        "alt_km": 630.5686411909501,
        "timestamp": "2025-12-21T11:31:42.499556+00:00",
        "meta_object_name": "GAOFEN-6",
        "meta_object_id": "2018-048A",
        "meta_epoch": "2025-12-21T04:31:51.403296",
        "meta_mean_motion": 14.76578604,
        "meta_eccentricity": 0.0012802,
        "meta_inclination": 97.8027,
        "meta_ra_of_asc_node": 59.1722,
        "meta_arg_of_pericenter": 38.7061,
        "meta_mean_anomaly": 321.5064,
        "meta_ephemeris_type": 0,
        "meta_classification_type": "U",
        "meta_norad_cat_id": 43484,
        "meta_element_set_no": 999,
        "meta_rev_at_epoch": 40712,
        "meta_bstar": 2.1765e-05,
        "meta_mean_motion_dot": 1.03e-06,
        "meta_mean_motion_ddot": 0,
        "tle_line1": "1 43484U 18048A   25355.18878939  .00000103  00000+0  21765-4 0  9995",
        "tle_line2": "2 43484  97.8027  59.1722 0012802  38.7061 321.5064 14.76578604407125"
      },
      "geometry": {
        "type": "Point",
        "coordinates": [
          -99.3476786684137,
          69.2325868556824
        ]
      }
    },
    {
      "type": "Feature",
      "properties": {
        "norad_id": 43585,
        "name": "GAOFEN-11 01",
        "group": "resource",
        "lat": 41.125133645268434,
        "lon": 52.045414392608876,
        "alt_km": 417.005876734901,
        "timestamp": "2025-12-21T11:31:42.499566+00:00",
        "meta_object_name": "GAOFEN-11 01",
        "meta_object_id": "2018-063A",
        "meta_epoch": "2025-12-21T05:08:59.864928",
        "meta_mean_motion": 15.4944091,
        "meta_eccentricity": 0.0003912,
        "meta_inclination": 97.1555,
        "meta_ra_of_asc_node": 58.0793,
        "meta_arg_of_pericenter": 268.6551,
        "meta_mean_anomaly": 91.4252,
        "meta_ephemeris_type": 0,
        "meta_classification_type": "U",
        "meta_norad_cat_id": 43585,
        "meta_element_set_no": 999,
        "meta_rev_at_epoch": 41273,
        "meta_bstar": 0.00020605,
        "meta_mean_motion_dot": 0.00011236,
        "meta_mean_motion_ddot": 0,
        "tle_line1": "1 43585U 18063A   25355.21458177  .00011236  00000+0  20605-3 0  9996",
        "tle_line2": "2 43585  97.1555  58.0793 0003912 268.6551  91.4252 15.49440910412736"
      },
      "geometry": {
        "type": "Point",
        "coordinates": [
          52.045414392608876,
          41.125133645268434
        ]
      }
    },
    {
      "type": "Feature",
      "properties": {
        "norad_id": 43613,
        "name": "ICESAT-2",
        "group": "resource",
        "lat": -13.649808692855096,
        "lon": 62.60874388241012,
        "alt_km": 485.29789375560085,
        "timestamp": "2025-12-21T11:31:42.499576+00:00",
        "meta_object_name": "ICESAT-2",
        "meta_object_id": "2018-070A",
        "meta_epoch": "2025-12-21T02:49:36.554016",
        "meta_mean_motion": 15.28242403,
        "meta_eccentricity": 0.0002915,
        "meta_inclination": 92.0046,
        "meta_ra_of_asc_node": 242.9983,
        "meta_arg_of_pericenter": 120.4848,
        "meta_mean_anomaly": 239.6689,
        "meta_ephemeris_type": 0,
        "meta_classification_type": "U",
        "meta_norad_cat_id": 43613,
        "meta_element_set_no": 999,
        "meta_rev_at_epoch": 40526,
        "meta_bstar": 0.00031396,
        "meta_mean_motion_dot": 8.637e-05,
        "meta_mean_motion_ddot": 0,
        "tle_line1": "1 43613U 18070A   25355.11778419  .00008637  00000+0  31396-3 0  9999",
        "tle_line2": "2 43613  92.0046 242.9983 0002915 120.4848 239.6689 15.28242403405262"
      },
      "geometry": {
        "type": "Point",
        "coordinates": [
          62.60874388241012,
          -13.649808692855096
        ]
      }
    },
    {
      "type": "Feature",
      "properties": {
        "norad_id": 43719,
        "name": "HYSIS",
        "group": "resource",
        "lat": -29.851670718861268,
        "lon": -126.21920592302946,
        "alt_km": 640.1525861944983,
        "timestamp": "2025-12-21T11:31:42.499586+00:00",
        "meta_object_name": "HYSIS",
        "meta_object_id": "2018-096A",
        "meta_epoch": "2025-12-21T04:05:06.468000",
        "meta_mean_motion": 14.78666194,
        "meta_eccentricity": 0.0001003,
        "meta_inclination": 98.0093,
        "meta_ra_of_asc_node": 58.1071,
        "meta_arg_of_pericenter": 53.0776,
        "meta_mean_anomaly": 307.0527,
        "meta_ephemeris_type": 0,
        "meta_classification_type": "U",
        "meta_norad_cat_id": 43719,
        "meta_element_set_no": 999,
        "meta_rev_at_epoch": 38111,
        "meta_bstar": 0.00010464,
        "meta_mean_motion_dot": 7.15e-06,
        "meta_mean_motion_ddot": 0,
        "tle_line1": "1 43719U 18096A   25355.17021375  .00000715  00000+0  10464-3 0  9994",
        "tle_line2": "2 43719  98.0093  58.1071 0001003  53.0776 307.0527 14.78666194381119"
      },
      "geometry": {
        "type": "Point",
        "coordinates": [
          -126.21920592302946,
          -29.851670718861268
        ]
      }
    }
  ]
}